ONEWEB-0371             
1 49297U 21090U   25239.85467670 -.00000243  00000+0 -64037-3 0  9990
2 49297  87.9276   3.2837 0001678  97.9403 262.1920 13.19724768187768
ONEWEB-0372             
1 49298U 21090V   25239.75529373  .00000071  00000+0  14300-3 0  9994
2 49298  87.9289 332.9311 0001885  96.5928 263.5420 13.20771623191106
ONEWEB-0373             
1 49299U 21090W   25239.63072532 -.00000072  00000+0 -20803-3 0  9990
2 49299  87.9295 332.9683 0001946 101.9209 258.2143 13.20772990192277
ONEWEB-0374             
1 49300U 21090X   25239.83691553  .00000184  00000+0  46093-3 0  9996
2 49300  87.9088 348.0899 0002386  93.9448 266.1954 13.14503812189026
ONEWEB-0375             
1 49301U 21090Y   25239.76962822 -.00000007  00000+0 -49438-4 0  9992
2 49301  87.9300 332.9199 0002516 103.6692 256.4722 13.20772345191792
ONEWEB-0376             
1 49302U 21090Z   25239.85311734 -.00000046  00000+0 -14733-3 0  9995
2 49302  87.9275   3.2656 0001624  91.4411 268.6908 13.19726198187768
ONEWEB-0377             
1 49303U 21090AA  25239.75557626  .00000044  00000+0  75203-4 0  9993
2 49303  87.9300 332.9169 0001934 107.2587 252.8758 13.20770980191788
ONEWEB-0378             
1 49304U 21090AB  25239.77764178 -.00000038  00000+0 -12463-3 0  9991
2 49304  87.9313 332.9240 0002032  99.2033 260.9330 13.20772365191054
